{
  "norad_id": 66674,
  "name": "BRO-20",
  "history": [
    {
      "epoch": "2026-03-28T17:39:30.990240",
      "apogee_km": 516.4177295700938,
      "perigee_km": 509.7948313029983,
      "latitude_deg": -30.312290481815275,
      "longitude_deg": -161.9655663999729,
      "semi_major_axis_km": 6891.243280436546,
      "eccentricity": 0.00048053,
      "inclination_deg": 97.4213,
      "raan_deg": 162.427,
      "arg_perigee_deg": 287.7968,
      "mean_anomaly_deg": 72.2741,
      "mean_motion_rev_day": 15.17596754
    },
    {
      "epoch": "2026-03-29T04:44:08.827296",
      "apogee_km": 516.3913656334053,
      "perigee_km": 509.78819213388033,
      "latitude_deg": 57.123197764790326,
      "longitude_deg": -117.65685856016353,
      "semi_major_axis_km": 6891.2267788836425,
      "eccentricity": 0.0004791,
      "inclination_deg": 97.4213,
      "raan_deg": 162.8793,
      "arg_perigee_deg": 285.5499,
      "mean_anomaly_deg": 74.5206,
      "mean_motion_rev_day": 15.17602205
    }
  ]
}